KUIPER-00141            
1 65966U 25228V   25310.19787221  .00031850  00000+0  93448-3 0  9996
2 65966  51.8789 196.6326 0005524 219.2982 140.7604 15.34872888  4802
KUIPER-00146            
1 65967U 25228W   25310.19838301  .00032280  00000+0  94781-3 0  9992
2 65967  51.8798 196.6437 0005503 220.8925 139.1648 15.34842188  4808
KUIPER-00149            
1 65968U 25228X   25310.19562170  .00033324  00000+0  97239-3 0  9992
2 65968  51.8790 196.6201 0005461 217.2510 142.8097 15.35022543  4808
KUIPER-00154            
1 65969U 25228Y   25310.19458592  .00038379  00000+0  11152-2 0  9999
2 65969  51.8785 196.6134 0005736 215.0836 144.9773 15.35085438  4806
KUIPER-00157            
1 65970U 25228Z   25310.07158393  .00017441  00000+0  52198-3 0  9997
2 65970  51.8803 197.2922 0005609 232.9796 127.0676 15.34612512  4782
STRIX-5                 
1 65971U 25229A   25310.06157631  .00006318  00000+0  48362-3 0  9991
2 65971  41.9276  82.4453 0038821  31.0746 329.2364 15.01758322  3396
ELECTRON R/B            
1 65972U 25229B   25310.06157629  .00006161  00000+0  47197-3 0  9990
2 65972  41.9277  82.4455 0038805  31.0142 329.2964 15.01758028  3379
ELECTRON KICK STAGE R/B 
1 65973U 25229C   25309.78305198  .00007383  00000+0  54900-3 0  9991
2 65973  41.9832  83.9422 0039943  29.2362 331.0689 15.02653357  3324
SDA_1664                
1 65974U 25230A   25310.24971980  .00000277  00000+0  23610-3 0  9994
2 65974  81.2995  58.4509 0003368  59.3793 300.7696 13.84697382  2952
SDA_1665                
1 65975U 25230B   25310.31076366  .00000336  00000+0  28462-3 0  9993
2 65975  81.3032  58.3807 0005028 101.0444 259.1279 13.85427546  2968
SDA_1666                
1 65976U 25230C   25310.25081322  .00000285  00000+0  24312-3 0  9998
2 65976  81.3004  58.4546 0003011  56.7046 303.4399 13.84625879  2956
SDA_1667                
1 65977U 25230D   25310.24696708  .00000307  00000+0  26186-3 0  9994
2 65977  81.2999  58.4484 0003912  69.7564 290.4014 13.84877122  2958
