CCSDS_OMM_VERS = 2.0
CREATION_DATE  = 
ORIGINATOR     = 

OBJECT_NAME    = KUIPER-00141
OBJECT_ID      = 2025-228V
CENTER_NAME    = EARTH
REF_FRAME      = TEME
TIME_SYSTEM    = UTC
MEAN_ELEMENT_THEORY = SGP/SGP4

EPOCH          = 2025-11-06T04:44:56.158944
MEAN_MOTION    = 15.34872888
ECCENTRICITY   = .00055246
INCLINATION    = 51.8789
RA_OF_ASC_NODE = 196.6326
ARG_OF_PERICENTER = 219.2982
MEAN_ANOMALY   = 140.7604

EPHEMERIS_TYPE = 0
CLASSIFICATION_TYPE = U
NORAD_CAT_ID   = 65966
ELEMENT_SET_NO = 999
REV_AT_EPOCH   = 480
BSTAR          = .9344824E-3
MEAN_MOTION_DOT = .3185E-3
MEAN_MOTION_DDOT = 0

CCSDS_OMM_VERS = 2.0
CREATION_DATE  = 
ORIGINATOR     = 

OBJECT_NAME    = KUIPER-00146
OBJECT_ID      = 2025-228W
CENTER_NAME    = EARTH
REF_FRAME      = TEME
TIME_SYSTEM    = UTC
MEAN_ELEMENT_THEORY = SGP/SGP4

EPOCH          = 2025-11-06T04:45:40.292064
MEAN_MOTION    = 15.34842188
ECCENTRICITY   = .00055034
INCLINATION    = 51.8798
RA_OF_ASC_NODE = 196.6437
ARG_OF_PERICENTER = 220.8925
MEAN_ANOMALY   = 139.1648

EPHEMERIS_TYPE = 0
CLASSIFICATION_TYPE = U
NORAD_CAT_ID   = 65967
ELEMENT_SET_NO = 999
REV_AT_EPOCH   = 480
BSTAR          = .94781111E-3
MEAN_MOTION_DOT = .3228E-3
MEAN_MOTION_DDOT = 0

CCSDS_OMM_VERS = 2.0
CREATION_DATE  = 
ORIGINATOR     = 

OBJECT_NAME    = KUIPER-00149
OBJECT_ID      = 2025-228X
CENTER_NAME    = EARTH
REF_FRAME      = TEME
TIME_SYSTEM    = UTC
MEAN_ELEMENT_THEORY = SGP/SGP4

EPOCH          = 2025-11-06T04:41:41.714880
MEAN_MOTION    = 15.35022543
ECCENTRICITY   = .0005461
INCLINATION    = 51.8790
RA_OF_ASC_NODE = 196.6201
ARG_OF_PERICENTER = 217.2510
MEAN_ANOMALY   = 142.8097

EPHEMERIS_TYPE = 0
CLASSIFICATION_TYPE = U
NORAD_CAT_ID   = 65968
ELEMENT_SET_NO = 999
REV_AT_EPOCH   = 480
BSTAR          = .97239168E-3
MEAN_MOTION_DOT = .33324E-3
MEAN_MOTION_DDOT = 0

CCSDS_OMM_VERS = 2.0
CREATION_DATE  = 
ORIGINATOR     = 

OBJECT_NAME    = KUIPER-00154
OBJECT_ID      = 2025-228Y
CENTER_NAME    = EARTH
REF_FRAME      = TEME
TIME_SYSTEM    = UTC
MEAN_ELEMENT_THEORY = SGP/SGP4

EPOCH          = 2025-11-06T04:40:12.223488
MEAN_MOTION    = 15.35085438
ECCENTRICITY   = .00057361
INCLINATION    = 51.8785
RA_OF_ASC_NODE = 196.6134
ARG_OF_PERICENTER = 215.0836
MEAN_ANOMALY   = 144.9773

EPHEMERIS_TYPE = 0
CLASSIFICATION_TYPE = U
NORAD_CAT_ID   = 65969
ELEMENT_SET_NO = 999
REV_AT_EPOCH   = 480
BSTAR          = .11152058E-2
MEAN_MOTION_DOT = .38379E-3
MEAN_MOTION_DDOT = 0

CCSDS_OMM_VERS = 2.0
CREATION_DATE  = 
ORIGINATOR     = 

OBJECT_NAME    = KUIPER-00157
OBJECT_ID      = 2025-228Z
CENTER_NAME    = EARTH
REF_FRAME      = TEME
TIME_SYSTEM    = UTC
MEAN_ELEMENT_THEORY = SGP/SGP4

EPOCH          = 2025-11-06T01:43:04.851552
MEAN_MOTION    = 15.34612512
ECCENTRICITY   = .00056091
INCLINATION    = 51.8803
RA_OF_ASC_NODE = 197.2922
ARG_OF_PERICENTER = 232.9796
MEAN_ANOMALY   = 127.0676

EPHEMERIS_TYPE = 0
CLASSIFICATION_TYPE = U
NORAD_CAT_ID   = 65970
ELEMENT_SET_NO = 999
REV_AT_EPOCH   = 478
BSTAR          = .52198449E-3
MEAN_MOTION_DOT = .17441E-3
MEAN_MOTION_DDOT = 0

CCSDS_OMM_VERS = 2.0
CREATION_DATE  = 
ORIGINATOR     = 

OBJECT_NAME    = STRIX-5
OBJECT_ID      = 2025-229A
CENTER_NAME    = EARTH
REF_FRAME      = TEME
TIME_SYSTEM    = UTC
MEAN_ELEMENT_THEORY = SGP/SGP4

EPOCH          = 2025-11-06T01:28:40.193184
MEAN_MOTION    = 15.01758322
ECCENTRICITY   = .00388219
INCLINATION    = 41.9276
RA_OF_ASC_NODE = 82.4453
ARG_OF_PERICENTER = 31.0746
MEAN_ANOMALY   = 329.2364

EPHEMERIS_TYPE = 0
CLASSIFICATION_TYPE = U
NORAD_CAT_ID   = 65971
ELEMENT_SET_NO = 999
REV_AT_EPOCH   = 339
BSTAR          = .48362046E-3
MEAN_MOTION_DOT = .6318E-4
MEAN_MOTION_DDOT = 0

CCSDS_OMM_VERS = 2.0
CREATION_DATE  = 
ORIGINATOR     = 

OBJECT_NAME    = ELECTRON R/B
OBJECT_ID      = 2025-229B
CENTER_NAME    = EARTH
REF_FRAME      = TEME
TIME_SYSTEM    = UTC
MEAN_ELEMENT_THEORY = SGP/SGP4

EPOCH          = 2025-11-06T01:28:40.191456
MEAN_MOTION    = 15.01758028
ECCENTRICITY   = .00388059
INCLINATION    = 41.9277
RA_OF_ASC_NODE = 82.4455
ARG_OF_PERICENTER = 31.0142
MEAN_ANOMALY   = 329.2964

EPHEMERIS_TYPE = 0
CLASSIFICATION_TYPE = U
NORAD_CAT_ID   = 65972
ELEMENT_SET_NO = 999
REV_AT_EPOCH   = 337
BSTAR          = .47196911E-3
MEAN_MOTION_DOT = .6161E-4
MEAN_MOTION_DDOT = 0

CCSDS_OMM_VERS = 2.0
CREATION_DATE  = 
ORIGINATOR     = 

OBJECT_NAME    = ELECTRON KICK STAGE R/B
OBJECT_ID      = 2025-229C
CENTER_NAME    = EARTH
REF_FRAME      = TEME
TIME_SYSTEM    = UTC
MEAN_ELEMENT_THEORY = SGP/SGP4

EPOCH          = 2025-11-05T18:47:35.691072
MEAN_MOTION    = 15.02653357
ECCENTRICITY   = .0039943
INCLINATION    = 41.9832
RA_OF_ASC_NODE = 83.9422
ARG_OF_PERICENTER = 29.2362
MEAN_ANOMALY   = 331.0689

EPHEMERIS_TYPE = 0
CLASSIFICATION_TYPE = U
NORAD_CAT_ID   = 65973
ELEMENT_SET_NO = 999
REV_AT_EPOCH   = 332
BSTAR          = .54900042E-3
MEAN_MOTION_DOT = .7383E-4
MEAN_MOTION_DDOT = 0

CCSDS_OMM_VERS = 2.0
CREATION_DATE  = 
ORIGINATOR     = 

OBJECT_NAME    = SDA_1664
OBJECT_ID      = 2025-230A
CENTER_NAME    = EARTH
REF_FRAME      = TEME
TIME_SYSTEM    = UTC
MEAN_ELEMENT_THEORY = SGP/SGP4

EPOCH          = 2025-11-06T05:59:35.790720
MEAN_MOTION    = 13.84697382
ECCENTRICITY   = .00033685
INCLINATION    = 81.2995
RA_OF_ASC_NODE = 58.4509
ARG_OF_PERICENTER = 59.3793
MEAN_ANOMALY   = 300.7696

EPHEMERIS_TYPE = 0
CLASSIFICATION_TYPE = U
NORAD_CAT_ID   = 65974
ELEMENT_SET_NO = 999
REV_AT_EPOCH   = 295
BSTAR          = .23610105E-3
MEAN_MOTION_DOT = .277E-5
MEAN_MOTION_DDOT = 0

CCSDS_OMM_VERS = 2.0
CREATION_DATE  = 
ORIGINATOR     = 

OBJECT_NAME    = SDA_1665
OBJECT_ID      = 2025-230B
CENTER_NAME    = EARTH
REF_FRAME      = TEME
TIME_SYSTEM    = UTC
MEAN_ELEMENT_THEORY = SGP/SGP4

EPOCH          = 2025-11-06T07:27:29.980224
MEAN_MOTION    = 13.85427546
ECCENTRICITY   = .00050281
INCLINATION    = 81.3032
RA_OF_ASC_NODE = 58.3807
ARG_OF_PERICENTER = 101.0444
MEAN_ANOMALY   = 259.1279

EPHEMERIS_TYPE = 0
CLASSIFICATION_TYPE = U
NORAD_CAT_ID   = 65975
ELEMENT_SET_NO = 999
REV_AT_EPOCH   = 296
BSTAR          = .28461953E-3
MEAN_MOTION_DOT = .336E-5
MEAN_MOTION_DDOT = 0

CCSDS_OMM_VERS = 2.0
CREATION_DATE  = 
ORIGINATOR     = 

OBJECT_NAME    = SDA_1666
OBJECT_ID      = 2025-230C
CENTER_NAME    = EARTH
REF_FRAME      = TEME
TIME_SYSTEM    = UTC
MEAN_ELEMENT_THEORY = SGP/SGP4

EPOCH          = 2025-11-06T06:01:10.262208
MEAN_MOTION    = 13.84625879
ECCENTRICITY   = .00030119
INCLINATION    = 81.3004
RA_OF_ASC_NODE = 58.4546
ARG_OF_PERICENTER = 56.7046
MEAN_ANOMALY   = 303.4399

EPHEMERIS_TYPE = 0
CLASSIFICATION_TYPE = U
NORAD_CAT_ID   = 65976
ELEMENT_SET_NO = 999
REV_AT_EPOCH   = 295
BSTAR          = .24311869E-3
MEAN_MOTION_DOT = .285E-5
MEAN_MOTION_DDOT = 0

CCSDS_OMM_VERS = 2.0
CREATION_DATE  = 
ORIGINATOR     = 

OBJECT_NAME    = SDA_1667
OBJECT_ID      = 2025-230D
CENTER_NAME    = EARTH
REF_FRAME      = TEME
TIME_SYSTEM    = UTC
MEAN_ELEMENT_THEORY = SGP/SGP4

EPOCH          = 2025-11-06T05:55:37.955712
MEAN_MOTION    = 13.84877122
ECCENTRICITY   = .00039129
INCLINATION    = 81.2999
RA_OF_ASC_NODE = 58.4484
ARG_OF_PERICENTER = 69.7564
MEAN_ANOMALY   = 290.4014

EPHEMERIS_TYPE = 0
CLASSIFICATION_TYPE = U
NORAD_CAT_ID   = 65977
ELEMENT_SET_NO = 999
REV_AT_EPOCH   = 295
BSTAR          = .26186202E-3
MEAN_MOTION_DOT = .307E-5
MEAN_MOTION_DDOT = 0

